#
# this file is automatically produced by convkeps.pl
#
# Last update: Mon Dec 17 16:52:38 2001
#

package Sun;

%keps = (
  'SAUDISAT-1B' => {
    orbit => '6528',
    elset => '337',
    argperigee => '311.0657',
    epoch => '1347.19051484',
    bstar => '0.00077615',
    number => '57',
    raan => '280.7676',
    mm1 => '5.3e-05',
    meanmotion => '14.75619658',
    mm2 => '0',
    id => '26549',
    meananomaly => '48.5806',
    eccentricity => '0.0053349',
    inclination => '64.5512'
  },
  'SO-33' => {
    orbit => '16356',
    elset => '463',
    argperigee => '133.4189',
    epoch => '1347.57309306',
    bstar => '0.00035651',
    number => '98061',
    raan => '70.871',
    mm1 => '1.804e-05',
    meanmotion => '14.26151926',
    mm2 => '0',
    id => '25509',
    meananomaly => '229.7197',
    eccentricity => '0.0362334',
    inclination => '31.4279'
  },
  'AO-21' => {
    orbit => '54556',
    elset => '170',
    argperigee => '17.1416',
    epoch => '1347.86209978',
    bstar => '0.00023338',
    number => '91006',
    raan => '277.0781',
    mm1 => '2.38e-06',
    meanmotion => '13.74828984',
    mm2 => '0',
    id => '21087',
    meananomaly => '343.0931',
    eccentricity => '0.0035652',
    inclination => '82.94'
  },
  'RS-10/11' => {
    orbit => '72528',
    elset => '21',
    argperigee => '353.0448',
    epoch => '1347.84454243',
    bstar => '0.00023442',
    number => '87054',
    raan => '105.8309',
    mm1 => '2.3e-06',
    meanmotion => '13.72611548',
    mm2 => '0',
    id => '18129',
    meananomaly => '7.0532',
    eccentricity => '0.0012448',
    inclination => '82.9232'
  },
  'SO-35' => {
    orbit => '9604',
    elset => '281',
    argperigee => '310.331',
    epoch => '356.30570266',
    bstar => '0.00020263',
    number => '99008',
    raan => '155.0303',
    mm1 => '7.23e-06',
    meanmotion => '14.41615958',
    mm2 => '0',
    meananomaly => '48.4786',
    id => '25636',
    inclination => '96.4508',
    eccentricity => '0.0151034'
  },
  'GO-32' => {
    orbit => '17796',
    elset => '436',
    argperigee => '359.4978',
    epoch => '1346.87603256',
    bstar => '0.00023894',
    number => '98043',
    raan => '60.8371',
    mm1 => '4.92e-06',
    meanmotion => '14.22717592',
    mm2 => '0',
    id => '25397',
    meananomaly => '0.62',
    eccentricity => '0.0001278',
    inclination => '98.6681'
  },
  'TO-31' => {
    orbit => '17798',
    elset => '622',
    argperigee => '323.6997',
    epoch => '1346.94234123',
    bstar => '0',
    number => '98043',
    raan => '61.5273',
    mm1 => '-4.4e-07',
    meanmotion => '14.23185057',
    mm2 => '0',
    id => '25396',
    meananomaly => '36.407',
    eccentricity => '0.000172',
    inclination => '98.6694'
  },
  'UO-11' => {
    orbit => '95252',
    elset => '692',
    argperigee => '150.5494',
    epoch => '1347.9046019',
    bstar => '0.00073061',
    number => '84021',
    raan => '310.8404',
    mm1 => '4.901e-05',
    meanmotion => '14.75274314',
    mm2 => '0',
    id => '14781',
    meananomaly => '209.6314',
    eccentricity => '0.0010625',
    inclination => '98.0576'
  },
  'AO-40' => {
    orbit => '509',
    elset => '180',
    argperigee => '358.2314',
    epoch => '1342.40370237',
    bstar => '0.0001',
    number => '72',
    raan => '139.7874',
    mm1 => '-4.8e-07',
    meanmotion => '1.25597182',
    mm2 => '0',
    id => '26609',
    meananomaly => '359.9262',
    eccentricity => '0.7951867',
    inclination => '6.6079'
  },
  'MET-3/5' => {
    orbit => '49653',
    elset => '404',
    argperigee => '195.4354',
    epoch => '1346.93658451',
    bstar => '0.0001',
    number => '91056',
    raan => '344.4878',
    mm1 => '5.1e-07',
    meanmotion => '13.16948404',
    mm2 => '0',
    id => '21655',
    meananomaly => '164.6365',
    eccentricity => '0.0013231',
    inclination => '82.5559'
  },
  'NOAA-10' => {
    orbit => '79234',
    elset => '142',
    argperigee => '265.6315',
    epoch => '1347.87705474',
    bstar => '0.00048547',
    number => '86073',
    raan => '333.8011',
    mm1 => '1.128e-05',
    meanmotion => '14.26598138',
    mm2 => '0',
    id => '16969',
    meananomaly => '94.3531',
    eccentricity => '0.0011676',
    inclination => '98.6933'
  },
  'UO-14' => {
    orbit => '62072',
    elset => '845',
    argperigee => '44.6675',
    epoch => '1347.69542577',
    bstar => '0.00027136',
    number => '90005',
    raan => '40.4987',
    mm1 => '6.71e-06',
    meanmotion => '14.30895698',
    mm2 => '0',
    id => '20437',
    meananomaly => '315.5454',
    eccentricity => '0.0011822',
    inclination => '98.3351'
  },
  'AO-27' => {
    orbit => '42823',
    elset => '149',
    argperigee => '94.8763',
    epoch => '1347.88570444',
    bstar => '0.0002808',
    number => '93061',
    raan => '28.4306',
    mm1 => '6.64e-06',
    meanmotion => '14.28597495',
    mm2 => '0',
    id => '22825',
    meananomaly => '265.3505',
    eccentricity => '0.0009495',
    inclination => '98.3272'
  },
  'NOAA-11' => {
    orbit => '68177',
    elset => '971',
    argperigee => '350.2685',
    epoch => '1347.84416344',
    bstar => '0.000396',
    number => '88089',
    raan => '59.8103',
    mm1 => '7.1e-06',
    meanmotion => '14.14136105',
    mm2 => '0',
    id => '19531',
    meananomaly => '9.8253',
    eccentricity => '0.0011964',
    inclination => '98.9441'
  },
  FENGYUN1 => {
    orbit => '13372',
    elset => '429',
    argperigee => '148.7618',
    epoch => '1347.72195466',
    bstar => '0.00012402',
    number => '99025',
    raan => '17.8166',
    mm1 => '1.79e-06',
    meanmotion => '14.10428848',
    mm2 => '0',
    id => '25730',
    meananomaly => '211.4408',
    eccentricity => '0.0014339',
    inclination => '98.6741'
  },
  OCS => {
    orbit => '4779',
    elset => '405',
    argperigee => '347.6221',
    epoch => '356.70018964',
    bstar => '0.030241',
    number => '4',
    raan => '263.5965',
    mm1 => '0.00237336',
    meanmotion => '14.81378842',
    mm2 => '0',
    meananomaly => '12.499',
    id => '26062',
    inclination => '100.2182',
    eccentricity => '0.0022433'
  },
  'TIUNGSAT-1' => {
    orbit => '6538',
    elset => '221',
    argperigee => '299.7435',
    epoch => '1347.2554667',
    bstar => '0.00083493',
    number => '57',
    raan => '275.7103',
    mm1 => '6.053e-05',
    meanmotion => '14.78230514',
    mm2 => '0',
    id => '26548',
    meananomaly => '59.8964',
    eccentricity => '0.0047431',
    inclination => '64.5594'
  },
  'NOAA-12' => {
    orbit => '54974',
    elset => '428',
    argperigee => '195.3965',
    epoch => '1347.88210494',
    bstar => '0.00061722',
    number => '91032',
    raan => '335.9303',
    mm1 => '1.385e-05',
    meanmotion => '14.24373365',
    mm2 => '0',
    id => '21263',
    meananomaly => '164.6835',
    eccentricity => '0.0012491',
    inclination => '98.5871'
  },
  'RS-15' => {
    orbit => '28672',
    elset => '597',
    argperigee => '195.8715',
    epoch => '1346.12063701',
    bstar => '8.4324e-05',
    number => '94085',
    raan => '22.4222',
    mm1 => '-4e-07',
    meanmotion => '11.27543475',
    mm2 => '0',
    id => '23439',
    meananomaly => '163.7155',
    eccentricity => '0.0160287',
    inclination => '64.8204'
  },
  'NOAA-14' => {
    orbit => '35850',
    elset => '996',
    argperigee => '6.4256',
    epoch => '1347.8582936',
    bstar => '0.00043701',
    number => '94089',
    raan => '344.9144',
    mm1 => '7.67e-06',
    meanmotion => '14.12902898',
    mm2 => '0',
    id => '23455',
    meananomaly => '353.7033',
    eccentricity => '0.0009431',
    inclination => '99.1885'
  },
  'RS-12/13' => {
    orbit => '54436',
    elset => '387',
    argperigee => '51.3648',
    epoch => '1346.95326096',
    bstar => '0.00019814',
    number => '91007',
    raan => '142.3842',
    mm1 => '2.03e-06',
    meanmotion => '13.7431434',
    mm2 => '0',
    id => '21089',
    meananomaly => '309.0257',
    eccentricity => '0.0030776',
    inclination => '82.9195'
  },
  'NOAA-15' => {
    orbit => '18636',
    elset => '462',
    argperigee => '130.2972',
    epoch => '1347.91315447',
    bstar => '0.000356',
    number => '98030',
    raan => '11.0677',
    mm1 => '7.72e-06',
    meanmotion => '14.23800077',
    mm2 => '0',
    id => '25338',
    meananomaly => '229.9179',
    eccentricity => '0.0011105',
    inclination => '98.5835'
  },
  'NOAA-16' => {
    orbit => '6323',
    elset => '613',
    argperigee => '88.3285',
    epoch => '1347.80714413',
    bstar => '0.00042048',
    number => '55',
    raan => '290.7081',
    mm1 => '7.18e-06',
    meanmotion => '14.11410831',
    mm2 => '0',
    id => '26536',
    meananomaly => '271.9166',
    eccentricity => '0.0011459',
    inclination => '98.8477'
  },
  HUBBLE => {
    orbit => '43769',
    elset => '792',
    argperigee => '25.9487',
    epoch => '1346.50459803',
    bstar => '0.00081808',
    number => '90037',
    raan => '326.5706',
    mm1 => '9.553e-05',
    meanmotion => '14.95936957',
    mm2 => '0',
    id => '20580',
    meananomaly => '334.169',
    eccentricity => '0.00118',
    inclination => '28.4644'
  },
  'UO-36' => {
    orbit => '14257',
    elset => '455',
    argperigee => '225.8822',
    epoch => '1347.87053407',
    bstar => '0.00030844',
    number => '99021',
    raan => '249.7026',
    mm1 => '1.94e-05',
    meanmotion => '14.74566789',
    mm2 => '0',
    id => '25693',
    meananomaly => '133.9607',
    eccentricity => '0.0032417',
    inclination => '64.5628'
  },
  MIR => {
    orbit => '84870',
    elset => '341',
    argperigee => '138.854',
    epoch => '356.86032407',
    bstar => '0.00042632',
    number => '86017',
    raan => '14.9528',
    mm1 => '0.00102535',
    meanmotion => '15.84741655',
    mm2 => '0',
    meananomaly => '231.2527',
    id => '16609',
    inclination => '51.6493',
    eccentricity => '0.0016068'
  },
  'WO-18' => {
    orbit => '62073',
    elset => '673',
